{
  "norad_id": 39206,
  "name": "MUOS-2",
  "history": [
    {
      "epoch": "2026-03-28T19:09:38.651328Z",
      "apogee_km": 36003.26736308374,
      "perigee_km": 35569.749872578184,
      "latitude_deg": -4.199995306959224,
      "longitude_deg": 172.3745803955674,
      "height_km": 35671.40050969701,
      "semi_major_axis_km": 42164.64561783097,
      "eccentricity": 0.00514077,
      "inclination_deg": 4.8353,
      "raan_deg": 45.3732,
      "arg_perigee_deg": 182.8783,
      "mean_anomaly_deg": 57.3143,
      "mean_motion_rev_day": 1.00272093
    },
    {
      "epoch": "2026-03-29T03:34:56.661024Z",
      "apogee_km": 36003.21798976781,
      "perigee_km": 35569.76560572696,
      "latitude_deg": 0.5619061873375617,
      "longitude_deg": 171.89246754911053,
      "height_km": 36002.015030512,
      "semi_major_axis_km": 42164.62879774739,
      "eccentricity": 0.00514,
      "inclination_deg": 4.836,
      "raan_deg": 45.3739,
      "arg_perigee_deg": 182.8698,
      "mean_anomaly_deg": 183.9932,
      "mean_motion_rev_day": 1.00272153
    },
    {
      "epoch": "2026-03-29T14:25:43.699872Z",
      "apogee_km": 36003.01449275212,
      "perigee_km": 35569.9836801443,
      "latitude_deg": 0.8565678307865578,
      "longitude_deg": 171.8708382795887,
      "height_km": 35574.57487784474,
      "semi_major_axis_km": 42164.63608644821,
      "eccentricity": 0.005135,
      "inclination_deg": 4.8368,
      "raan_deg": 45.3742,
      "arg_perigee_deg": 182.8452,
      "mean_anomaly_deg": 347.1599,
      "mean_motion_rev_day": 1.00272127
    },
    {
      "epoch": "2026-03-29T14:25:43.700736Z",
      "apogee_km": 36003.0157576912,
      "perigee_km": 35569.98241520522,
      "latitude_deg": 0.8565678932445757,
      "longitude_deg": 171.8708339176315,
      "height_km": 35574.57364359002,
      "semi_major_axis_km": 42164.63608644821,
      "eccentricity": 0.00513503,
      "inclination_deg": 4.8368,
      "raan_deg": 45.3742,
      "arg_perigee_deg": 182.8452,
      "mean_anomaly_deg": 347.1599,
      "mean_motion_rev_day": 1.00272127
    }
  ]
}